GSAT0222 (GALILEO 26)   
1 43565U 18060B   23010.16571025 -.00000066  00000+0  00000+0 0  9992
2 43565  57.2391  15.5963 0005317 286.5328  73.4340  1.70475885 27837
GSAT0219 (GALILEO 23)   
1 43566U 18060C   23009.21308029 -.00000070  00000+0  00000+0 0  9994
2 43566  57.2402  15.6242 0004933 286.7516  73.2207  1.70475957 27791
GSAT0220 (GALILEO 24)   
1 43567U 18060D   23008.84677324 -.00000071  00000+0  00000+0 0  9991
2 43567  57.2397  15.6346 0005184 282.1544  77.8146  1.70475999 27776
BEIDOU-3 M13            
1 43622U 18072A   23010.22787341 -.00000010  00000+0  00000+0 0  9995
2 43622  55.6078 104.4123 0006014 278.0712  91.7412  1.86231276 29307
BEIDOU-3 M14            
1 43623U 18072B   23009.75298843 -.00000013  00000+0  00000+0 0  9999
2 43623  55.6094 104.4208 0003465 300.7427 200.9200  1.86231268 29291
GPS BIII-1              
1 43873U 18109A   23009.58352375  .00000026  00000+0  00000+0 0  9992
2 43873  55.1329 141.7571 0022817 188.9761 167.6046  2.00557888 29901
METEOR-M2 2             
1 44387U 19038A   23010.47219234  .00000049  00000+0  40898-4 0  9990
2 44387  98.7527 334.8896 0002211  56.4942 303.6442 14.23739228182861
GPS BIII-2              
1 44506U 19056A   23009.73174542 -.00000074  00000+0  00000+0 0  9997
2 44506  55.7604  20.8553 0029842 186.7094 177.6063  2.00560916 24916
BEIDOU-3 M23            
1 44542U 19061A   23010.45857850  .00000067  00000+0  00000+0 0  9995
2 44542  54.5316 225.0860 0008801   1.9766 358.0918  1.86231524 22442
BEIDOU-3 M24            
1 44543U 19061B   23010.32757765  .00000066  00000+0  00000+0 0  9995
2 44543  54.5286 225.0605 0005868 356.3071 187.4937  1.86231857 22435
BEIDOU-3 M21            
1 44793U 19078A   23009.49483602 -.00000087  00000+0  10000-3 0  9991
2 44793  54.8883 343.5178 0006422   0.3026 177.7743  1.86232027 21281
BEIDOU-3 M22            
1 44794U 19078B   23009.63527222 -.00000086  00000+0  00000+0 0  9999
2 44794  54.8614 343.5001 0004556 349.3093 194.9486  1.86232529 21287
ELEKTRO-L 3             
1 44903U 19095A   23009.87341316 -.00000083  00000+0  00000+0 0  9991
2 44903   0.0511 194.1301 0001502  71.0230 234.3978  1.00271796 11134
GPS BIII-3              
1 45854U 20041A   23009.31388164 -.00000038  00000+0  00000+0 0  9991
2 45854  55.6838  78.1431 0029697 184.4815 179.0980  2.00567401 18874
GPS BIII-4              
1 46826U 20078A   23009.06937529  .00000017  00000+0  00000+0 0  9994
2 46826  54.4390 261.7480 0025560 189.0309 334.2916  2.00564883 16336
GSAT0223 (GALILEO 27)   
1 49809U 21116A   23009.29291566 -.00000069  00000+0  00000+0 0  9999
2 49809  57.2325  15.5200 0003014 242.8152 121.1136  1.70476205  6790
GSAT0224 (GALILEO 28)   
1 49810U 21116B   23009.69419234 -.00000068  00000+0  00000+0 0  9998
2 49810  57.2341  15.5073 0002347 254.7084 107.9675  1.70476196  6825
